#dP2019  4  1  0  0  0.00000000      96 __u+U IGS08 FIT  IAC
## 2047  86400.00000000   900.00000000 58574 0.0000000000000
+   97   C01C02C03C04C05C06C07C08C09C10C11C12C13C14C16E01E02
+        E03E04E05E07E08E09E11E12E13E14E15E18E19E21E24E25E26
+        E27E30E31E33E36G01G02G03G04G05G06G07G08G09G10G11G12
+        G13G14G15G16G17G18G19G20G21G22G23G24G25G26G27G28G29
+        G30G31G32J01J02J03R01R02R03R04R05R07R08R09R10R11R13
+        R14R15R16R17R18R19R20R21R22R23R24R26  0  0  0  0  0
++        13 11 12 12 12  8  8  8  8  8  8  7  8  8  8  4  4
++         4  4  4  4  4  4  4  5  4  4  5  4  4  4  4  4  4
++         4  4  5  5  5  3  3  3  4  3  3  3  3  3  3  3  3
++         3  3  4  3  3  3  3  3  3  3  3  3  3  3  3  3  3
++         3  3  3  9  9 10  5  5  5  5  5  5  5  5  5  5  6
++         5  5  7  5  7  5  6  5  5  5  6  8  0  0  0  0  0
%c M  cc GPS ccc cccc cccc cccc cccc ccccc ccccc ccccc ccccc
%c cc cc ccc ccc cccc cccc cccc cccc ccccc ccccc ccccc ccccc
%f  1.2500000  1.025000000  0.00000000000  0.000000000000000
%f  0.0000000  0.000000000  0.00000000000  0.000000000000000
%i    0    0    0    0      0      0      0      0         0
%i    0    0    0    0      0      0      0      0         0
/* INFORMATION & ANALYSIS CENTER (IAC)            FINAL DATA
/* S/V CLOCKS ARE ALIGNED TO GPS & GLONASS TIME RESPECTIVELY
/* USING THE BROADCAST EPHEMERIS                            
/* PCV:IGS14_2038 OL/AL:FES2004  NONE     YN ORB:CoN CLK:CoN
*  2019 04 01 13 30  0.00000000
PC01 -32314.963009  27069.705204     -1.925490    404.063013
PC02   4358.814618  41955.102515    665.998665   -412.950482
PC03 -14824.667210  39474.520089    540.347446     47.892214
PC04 -39621.330865  14385.838912    512.876286     38.060334
PC05  21869.867605  36042.363976    525.506196   -186.781857
PC06 -25036.015023  27457.681571 -19936.037424    615.908360
PC07 -12300.490114  37312.131238 -14530.275170     65.399794
PC08  -9578.141438  19981.928242  35972.747774    138.920750
PC09 -10235.709649  27529.724980 -30175.018813    651.629522
PC10  -2823.789428  41769.585601  -2609.843342   -625.231947
PC11   4791.479907  15175.691490  22985.885994    -79.770941
PC12 -23496.565845   8387.599699  12490.158056    540.397312
PC13   4971.377986  28044.658989  31229.020081   -627.143103
PC14  -9764.456833  25544.883914  -5614.747411    714.153799
PC16 -20175.783082  28301.874481 -23993.368713   -471.605080
PE01  12640.033387  22659.815445  14242.652415   -574.491350
PE02 -12669.438069 -22607.691147 -14296.857387     54.016700
PE03 -12640.354733 -11786.092382  24034.124674   -150.375693
PE04  24662.959911  -5255.945412 -15492.440085   -252.402360
PE05   6869.770256 -22029.892749  18542.721684     81.627777
PE07 -22290.420448  19342.635002  -2216.762999   -160.328344
PE08 -24583.059222   5595.162762  15507.323942   6379.380775
PE09  22126.787473 -19542.585133   2265.945423   6482.658521
PE11  17057.304677  -9289.875223 -22326.796181   5711.224574
PE12  27992.599595   5259.625006  -8001.476769   6465.886307
PE13 -17173.016517   9186.097321  22304.682933    385.004244
PE14  23154.242084 -14357.158175 -10155.956973   -512.685374
PE15 -27981.833353  -4892.337610   8352.731692    915.272943
PE18 -27800.320699   3959.954437  -2915.163061   -612.315838
PE19  10812.255434  13115.408678 -24227.011998     -7.363127
PE21   1161.590970  29234.243607  -4505.123142   -526.932311
PE24  10881.002760 -18773.929399  20106.485948   6155.193666
PE25  -1134.915125 -29226.901724   4544.082134   1847.854010
PE26   3485.695464  18115.853661  23156.263408   4732.092422
PE27 -10953.222313  18459.000425 -20387.875756    498.775615
PE30 -16643.874728  -2779.067934 -24331.435085   4986.229236
PE31  16625.932512   3128.257553  24289.741084    868.291454
PE33  22429.703125  16167.119165  10562.728512    847.921744
PE36  -3755.954456 -17938.942584 -23235.176629    729.498899
PG01 -21932.881050 -12974.270150   7874.898204   -192.620598
PG02  11020.472088  20789.949416  13085.534912   -178.192316
PG03 -13708.840563  -7347.544100  21502.086126    187.680976
PG04 -23687.558115  10697.145552  -5470.739652    142.604669
PG05   3750.499853  23632.352247 -11423.639868      1.166631
PG06   -791.859335  17567.643814  19939.881596    241.394240
PG07 -19511.813433   -945.275837 -17952.061160      3.651149
PG08 -16473.812352  -8327.691222 -19134.074493   -138.301815
PG09 -25317.932084   8031.734426    521.611236    436.018684
PG10  11251.294212 -22162.542558  -9022.125466     83.622660
PG11 -24466.873443  -9747.667197  -2733.799076   -634.645424
PG12  12218.861887   9251.445170  21505.844095    255.097033
PG13   7834.596942  13604.403970 -21542.996198    -69.512751
PG14   8729.434463 -16042.921218  19532.269476    -86.169157
PG15  18847.103143   6612.451434 -17946.235485   -320.643015
PG16  -2190.785512 -22744.806011 -13331.442559    -29.514714
PG17 -17466.281576  14344.010887  14284.856633     32.327123
PG18 -19508.281004 -18064.562381  -2076.003500     40.132005
PG19 -10199.639113  15137.547826  19031.435310   -335.692157
PG20  14125.381516 -14859.506267 -16913.856955    523.608803
PG21  16578.700477  -4512.236257 -19418.359489   -221.087642
PG22 -11782.138421 -15292.268646  18504.701732   -675.543407
PG23 -24247.394488   -684.451970  11604.417487   -191.878795
PG24  22052.383844  14593.370923   3801.332915    -64.188965
PG25  15576.049540  -4532.958058  20770.157632   -740.416679
PG26   3265.279596 -26140.200862  -2523.934147    164.588577
PG27  -5276.370244 -13915.467630 -22101.023927    -98.701620
PG28 -12991.479935  21132.811007  -9007.671472    767.049390
PG29  25856.732529  -2720.936115   5408.161849    235.784535
PG30 -11825.123591  10267.040468 -21439.818361    -78.727451
PG31    425.390034 -18231.847262  19148.411960     48.089132
PG32  14247.713643 -16139.398045  15531.055135   -153.128134
PJ01 -30580.281312  28146.579958  12172.859906   -333.834957
PJ02 -18900.649280  23588.574399 -25048.844799      0.860545
PJ03 -30291.811760  27195.071600  16095.317309     -0.344825
PR01  11365.130121 -20932.268296   9155.751820     41.674188
PR02  -4080.052726 -11572.980969  22395.652407    361.573246
PR03 -15611.498330   3844.475876  19860.739816     -6.937796
PR04 -17916.511483  17374.643899   5331.688583    300.786585
PR05 -10213.008404  20442.646413 -11342.544982     25.259744
PR07  15776.065567  -4268.303203 -19534.042083    -17.508449
PR08  18041.415486 -17000.433443  -5943.290455     18.422273
PR09  11705.242045  21157.949555   8033.854560     62.143065
PR10  12924.511732   8845.738081  20082.393649     46.670922
PR11   7450.811388 -10606.729085  21984.707096    -61.563101
PR13 -11427.380181 -21857.098332  -6532.608704    -21.949449
PR14 -13224.394869  -8644.596126 -20023.568018     37.487312
PR15  -7728.419495   9661.006796 -22293.260727    101.032698
PR16   2568.025102  22609.078033 -11679.466769     10.471100
PR17 -24974.545386  -5023.563149   -967.161206    216.793909
PR18 -20311.918416   3241.971634  15148.157849    -11.900574
PR19  -4792.815656   9618.765204  23137.785348    -23.123090
PR20  15280.936089  11036.550811  17167.447403   -373.582229
PR21  25064.759132   4770.854481    375.892031    -39.901407
PR22  18338.250895  -4392.236482 -17098.269379    -12.350543
PR23   -994.767124 -10789.312853 -23096.547704    218.983802
PR24 -16930.115025 -10504.849368 -15962.545198   -178.866701
PR26  13358.831385  11078.117093  18716.191027      4.584517
EOF
